COMMENT,ORIGINATOR,NORAD_CAT_ID,OBJECT_NAME,OBJECT_TYPE,CLASSIFICATION_TYPE,INTLDES,EPOCH,EPOCH_MICROSECONDS,MEAN_MOTION,ECCENTRICITY,INCLINATION,RA_OF_ASC_NODE,ARG_OF_PERICENTER,MEAN_ANOMALY,EPHEMERIS_TYPE,ELEMENT_SET_NO,REV_AT_EPOCH,BSTAR,MEAN_MOTION_DOT,MEAN_MOTION_DDOT,FILE,TLE_LINE0,TLE_LINE1,TLE_LINE2,OBJECT_ID,OBJECT_NUMBER,SEMIMAJOR_AXIS,PERIOD,APOGEE,PERIGEE,DECAYED
"GENERATED VIA SPACETRACK.ORG API","18 SPCS","48893","SPACEBEE-106","PAYLOAD","U","21059Q","2023-12-02 08:16:37","391808","15.5000476","0.0003576","97.6102","119.5337","18.4649","341.6731","0","999","13524","0.0044873","0.00259519","0","4118466","0 SPACEBEE-106","1 48893U 21059Q   23336.34487722  .00259519  00000-0  44873-2 0  9992","2 48893  97.6102 119.5337 0003576  18.4649 341.6731 15.50004760135249","2021-059Q","48893","6794.849","92.903","419.144","414.284","0"
"GENERATED VIA SPACETRACK.ORG API","18 SPCS","48893","SPACEBEE-106","PAYLOAD","U","21059Q","2023-12-02 22:13:17","158656","15.50075538","0.0003708","97.6099","120.1476","16.2809","343.856","0","999","13533","0.0013294","0.00075225","0","4119201","0 SPACEBEE-106","1 48893U 21059Q   23336.92589304  .00075225  00000-0  13294-2 0  9998","2 48893  97.6099 120.1476 0003708  16.2809 343.8560 15.50075538135332","2021-059Q","48893","6794.642","92.899","419.027","413.988","0"
"GENERATED VIA SPACETRACK.ORG API","18 SPCS","48893","SPACEBEE-106","PAYLOAD","U","21059Q","2023-12-02 22:13:17","158656","15.50075538","0.0003708","97.6099","120.1476","16.2809","343.856","0","999","13533","0.0013294","0.00075225","0","4119294","0 SPACEBEE-106","1 48893U 21059Q   23336.92589304  .00075225  00000-0  13294-2 0  9998","2 48893  97.6099 120.1476 0003708  16.2809 343.8560 15.50075538135332","2021-059Q","48893","6794.642","92.899","419.027","413.988","0"
"GENERATED VIA SPACETRACK.ORG API","18 SPCS","48893","SPACEBEE-106","PAYLOAD","U","21059Q","2023-12-03 09:03:58","845024","15.5016899","0.0003707","97.6099","120.6241","15.5964","344.54","0","999","13540","0.0016184","0.00092098","0","4120086","0 SPACEBEE-106","1 48893U 21059Q   23337.37776441  .00092098  00000-0  16184-2 0  9996","2 48893  97.6099 120.6241 0003707  15.5964 344.5400 15.50168990135404","2021-059Q","48893","6794.369","92.893","418.753","413.716","0"
"GENERATED VIA SPACETRACK.ORG API","18 SPCS","48893","SPACEBEE-106","PAYLOAD","U","21059Q","2023-12-03 09:03:58","845024","15.5016899","0.0003707","97.6099","120.6241","15.5964","344.54","0","999","13540","0.0016184","0.00092098","0","4120389","0 SPACEBEE-106","1 48893U 21059Q   23337.37776441  .00092098  00000-0  16184-2 0  9996","2 48893  97.6099 120.6241 0003707  15.5964 344.5400 15.50168990135404","2021-059Q","48893","6794.369","92.893","418.753","413.716","0"
"GENERATED VIA SPACETRACK.ORG API","18 SPCS","48893","SPACEBEE-106","PAYLOAD","U","21059Q","2023-12-03 19:54:38","725632","15.50235149","0.0003785","97.61","121.1016","13.2424","346.8925","0","999","13547","0.0016021","0.00091374","0","4120618","0 SPACEBEE-106","1 48893U 21059Q   23337.82961488  .00091374  00000-0  16021-2 0  9999","2 48893  97.6100 121.1016 0003785  13.2424 346.8925 15.50235149135470","2021-059Q","48893","6794.176","92.889","418.613","413.469","0"
"GENERATED VIA SPACETRACK.ORG API","18 SPCS","48893","SPACEBEE-106","PAYLOAD","U","21059Q","2023-12-04 08:18:13","210272","15.5032337","0.0003768","97.61","121.646","10.9807","349.1525","0","999","13555","0.0012702","0.00072476","0","4122164","0 SPACEBEE-106","1 48893U 21059Q   23338.34598623  .00072476  00000-0  12702-2 0  9998","2 48893  97.6100 121.6460 0003768  10.9807 349.1525 15.50323370135553","2021-059Q","48893","6793.918","92.884","418.343","413.223","0"
"GENERATED VIA SPACETRACK.ORG API","18 SPCS","48893","SPACEBEE-106","PAYLOAD","U","21059Q","2023-12-04 08:18:13","210272","15.5032337","0.0003768","97.61","121.646","10.9807","349.1525","0","999","13555","0.0012702","0.00072476","0","4122393","0 SPACEBEE-106","1 48893U 21059Q   23338.34598623  .00072476  00000-0  12702-2 0  9998","2 48893  97.6100 121.6460 0003768  10.9807 349.1525 15.50323370135553","2021-059Q","48893","6793.918","92.884","418.343","413.223","0"
"GENERATED VIA SPACETRACK.ORG API","18 SPCS","48893","SPACEBEE-106","PAYLOAD","U","21059Q","2023-12-05 09:05:14","998848","15.50494571","0.000384","97.6094","122.7363","6.871","353.2593","0","999","13571","0.0013687","0.00078639","0","4123507","0 SPACEBEE-106","1 48893U 21059Q   23339.37864582  .00078639  00000-0  13687-2 0  9992","2 48893  97.6094 122.7363 0003840   6.8710 353.2593 15.50494571135718","2021-059Q","48893","6793.418","92.874","417.892","412.674","0"
"GENERATED VIA SPACETRACK.ORG API","18 SPCS","48893","SPACEBEE-106","PAYLOAD","U","21059Q","2023-12-05 09:05:14","998848","15.50494571","0.000384","97.6094","122.7363","6.871","353.2593","0","999","13571","0.0013687","0.00078639","0","4123878","0 SPACEBEE-106","1 48893U 21059Q   23339.37864582  .00078639  00000-0  13687-2 0  9992","2 48893  97.6094 122.7363 0003840   6.8710 353.2593 15.50494571135718","2021-059Q","48893","6793.418","92.874","417.892","412.674","0"
"GENERATED VIA SPACETRACK.ORG API","18 SPCS","48893","SPACEBEE-106","PAYLOAD","U","21059Q","2023-12-05 19:55:46","425216","15.50570789","0.000394","97.6092","123.2139","5.2925","354.8367","0","999","13578","0.0014912","0.00085998","0","4124334","0 SPACEBEE-106","1 48893U 21059Q   23339.83039844  .00085998  00000-0  14912-2 0  9996","2 48893  97.6092 123.2139 0003940   5.2925 354.8367 15.50570789135784","2021-059Q","48893","6793.195","92.869","417.737","412.384","0"
"GENERATED VIA SPACETRACK.ORG API","18 SPCS","48893","SPACEBEE-106","PAYLOAD","U","21059Q","2023-12-06 08:19:11","362656","15.50657382","0.0003855","97.6089","123.759","3.7807","356.3473","0","999","13586","0.0012842","0.00074162","0","4125534","0 SPACEBEE-106","1 48893U 21059Q   23340.34665929  .00074162  00000-0  12842-2 0  9994","2 48893  97.6089 123.7590 0003855   3.7807 356.3473 15.50657382135862","2021-059Q","48893","6792.943","92.864","417.426","412.189","0"
"GENERATED VIA SPACETRACK.ORG API","18 SPCS","48893","SPACEBEE-106","PAYLOAD","U","21059Q","2023-12-06 08:19:11","362656","15.50657382","0.0003855","97.6089","123.759","3.7807","356.3473","0","999","13586","0.0012842","0.00074162","0","4125793","0 SPACEBEE-106","1 48893U 21059Q   23340.34665929  .00074162  00000-0  12842-2 0  9994","2 48893  97.6089 123.7590 0003855   3.7807 356.3473 15.50657382135862","2021-059Q","48893","6792.943","92.864","417.426","412.189","0"
"GENERATED VIA SPACETRACK.ORG API","18 SPCS","48893","SPACEBEE-106","PAYLOAD","U","21059Q","2023-12-06 22:15:29","317824","15.50737995","0.0003886","97.6086","124.3731","2.3934","357.7335","0","999","13595","0.0012198","0.00070607","0","4126527","0 SPACEBEE-106","1 48893U 21059Q   23340.92742266  .00070607  00000-0  12198-2 0  9992","2 48893  97.6086 124.3731 0003886   2.3934 357.7335 15.50737995135954","2021-059Q","48893","6792.707","92.859","417.212","411.932","0"
"GENERATED VIA SPACETRACK.ORG API","18 SPCS","48893","SPACEBEE-106","PAYLOAD","U","21059Q","2023-12-07 09:05:54","827520","15.50795904","0.0003896","97.6091","124.8507","359.2781","0.8464","0","999","13602","0.0010237","0.00059277","0","4126908","0 SPACEBEE-106","1 48893U 21059Q   23341.37910680  .00059277  00000-0  10237-2 0  9991","2 48893  97.6091 124.8507 0003896 359.2781   0.8464 15.50795904136023","2021-059Q","48893","6792.538","92.856","417.049","411.757","0"
"GENERATED VIA SPACETRACK.ORG API","18 SPCS","48893","SPACEBEE-106","PAYLOAD","U","21059Q","2023-12-07 09:05:54","827520","15.50795904","0.0003896","97.6091","124.8507","359.2781","0.8464","0","999","13602","0.0010237","0.00059277","0","4127218","0 SPACEBEE-106","1 48893U 21059Q   23341.37910680  .00059277  00000-0  10237-2 0  9991","2 48893  97.6091 124.8507 0003896 359.2781   0.8464 15.50795904136023","2021-059Q","48893","6792.538","92.856","417.049","411.757","0"
"GENERATED VIA SPACETRACK.ORG API","18 SPCS","48893","SPACEBEE-106","PAYLOAD","U","21059Q","2023-12-08 08:19:35","984064","15.5091959","0.0003796","97.6085","125.8733","357.6697","2.4536","0","999","13617","0.00093946","0.00054597","0","4128726","0 SPACEBEE-106","1 48893U 21059Q   23342.34694426  .00054597  00000-0  93946-3 0  9995","2 48893  97.6085 125.8733 0003796 357.6697   2.4536 15.50919590136178","2021-059Q","48893","6792.177","92.848","416.620","411.464","0"
"GENERATED VIA SPACETRACK.ORG API","18 SPCS","48893","SPACEBEE-106","PAYLOAD","U","21059Q","2023-12-09 09:06:04","887936","15.51044101","0.0003809","97.6084","126.9647","354.6024","5.5185","0","999","13633","0.00096227","0.00056183","0","4129739","0 SPACEBEE-106","1 48893U 21059Q   23343.37922324  .00056183  00000-0  96227-3 0  9998","2 48893  97.6084 126.9647 0003809 354.6024   5.5185 15.51044101136339","2021-059Q","48893","6791.813","92.841","416.265","411.091","0"
"GENERATED VIA SPACETRACK.ORG API","18 SPCS","48893","SPACEBEE-106","PAYLOAD","U","21059Q","2023-12-09 09:06:04","887936","15.51044101","0.0003809","97.6084","126.9647","354.6024","5.5185","0","999","13633","0.00096227","0.00056183","0","4130247","0 SPACEBEE-106","1 48893U 21059Q   23343.37922324  .00056183  00000-0  96227-3 0  9998","2 48893  97.6084 126.9647 0003809 354.6024   5.5185 15.51044101136339","2021-059Q","48893","6791.813","92.841","416.265","411.091","0"
"GENERATED VIA SPACETRACK.ORG API","18 SPCS","48893","SPACEBEE-106","PAYLOAD","U","21059Q","2023-12-10 08:19:32","948832","15.51158465","0.0003882","97.6085","127.988","351.9238","8.195","0","999","13648","0.00085707","0.00050196","0","4131684","0 SPACEBEE-106","1 48893U 21059Q   23344.34690913  .00050196  00000-0  85707-3 0  9991","2 48893  97.6085 127.9880 0003882 351.9238   8.1950 15.51158465136482","2021-059Q","48893","6791.480","92.834","415.981","410.708","0"
